ORBCOMM FM06            
1 25118U 97084G   26195.53144279  .00000488  00000+0  17033-3 0  9999
2 25118  45.0138 281.0706 0001457 229.7599 144.8337 14.47626387498351
ORBCOMM FM04            
1 25159U 98007C   26195.84556282  .00000347  00000+0  16441-3 0  9991
2 25159 107.9633 226.3465 0041959 277.4943  82.1432 14.35784142480567
ORBCOMM FM19            
1 25415U 98046C   26195.16277059  .00000436  00000+0  18386-3 0  9995
2 25415  44.9932 115.3303 0003277  55.9416  83.6724 14.39540374460667
ORBCOMM FM20            
1 25416U 98046D   26195.52291417  .00000312  00000+0  14856-3 0  9991
2 25416  44.9933 121.8433 0001467 354.3981   5.6850 14.38099677460722
ORBCOMM FM27            
1 25481U 98053G   26195.39911480  .00000314  00000+0  14598-3 0  9990
2 25481  45.0036 206.1010 0002413 288.3088  71.7498 14.39184080454150
ORBCOMM FM32            
1 25982U 99065C   26194.98412876  .00000273  00000+0  13828-3 0  9998
2 25982  45.0157  46.3955 0005565 186.3791 173.6987 14.37167121390947
ORBCOMM FM109           
1 40086U 14040A   26195.35608055  .00000111  00000+0  59755-4 0  9999
2 40086  47.0043 323.0332 0001531 319.6282  40.4490 14.58872070638319
ORBCOMM FM110           
1 41182U 15081D   26195.36091245  .00000162  00000+0  70462-4 0  9995
2 41182  47.0006 232.9546 0003572 219.5189 140.5437 14.58917339561598
ORBCOMM FM118           
1 41183U 15081E   26195.39533247  .00000063  00000+0  49586-4 0  9995
2 41183  47.0026 233.1298 0002842 182.5276 177.5596 14.58903560561703
ORBCOMM FM112           
1 41184U 15081F   26195.53631945  .00000282  00000+0  95891-4 0  9999
2 41184  46.9980 140.9155 0003755 325.1012  34.9627 14.58938034562947
ORBCOMM FM113           
1 41185U 15081G   26195.23994956  .00000121  00000+0  61714-4 0  9990
2 41185  46.9998 142.7075 0002274 317.9908  42.0803 14.58881501562881
ORBCOMM FM108           
1 41187U 15081J   26195.33893339  .00000269  00000+0  92976-4 0  9993
2 41187  47.0054  53.8203 0002697 318.9983  41.0700 14.58909878564049
ORBCOMM FM117           
1 41188U 15081K   26195.30466025  .00000246  00000+0  88289-4 0  9996
2 41188  47.0017  52.6096 0003119 325.9589  34.1096 14.58896900564082
ORBCOMM FM116           
1 41189U 15081L   26195.55874473  .00000074  00000+0  51828-4 0  9992
2 41189  47.0014 141.1971 0001505 227.8864 132.1894 14.58905372562930
